YAOGAN-43 01D           
1 60461U 24148D   26068.43560480  .00010676  00000+0  37766-3 0  9999
2 60461  35.0010  61.7102 0002556 326.2473  33.8080 15.28369377 87008
STARLINK-32347          
1 61010U 24158W   26068.37262416 -.00000022  00000+0  11387-4 0  9999
2 61010  53.1610  66.9345 0001420  92.7786 267.3378 15.30192169 85539
